#aV2021  7  7  0  0  0.00000000     288 DD+AD WGS84 FIT  NGA
## 2165 259200.00000000   300.00000000 59402 0.0000000000000
+   32     1  2  3  4  5  6  7  8  9 10 11 12 13 14 15 16 17
+         18 19 20 21 22 23 24 25 26 27 28 29 30 31 32  0  0
+          0  0  0  0  0  0  0  0  0  0  0  0  0  0  0  0  0
+          0  0  0  0  0  0  0  0  0  0  0  0  0  0  0  0  0
+          0  0  0  0  0  0  0  0  0  0  0  0  0  0  0  0  0
++         2  2  2  2  2  2  2  2  2  2  2  2  2  2  2  2  2
++         2  2  2  2  2  2  2  2  2  2  2  2  2  2  2  0  0
++         0  0  0  0  0  0  0  0  0  0  0  0  0  0  0  0  0
++         0  0  0  0  0  0  0  0  0  0  0  0  0  0  0  0  0
++         0  0  0  0  0  0  0  0  0  0  0  0  0  0  0  0  0
%c cc cc ccc ccc cccc cccc cccc cccc ccccc ccccc ccccc ccccc
%c cc cc ccc ccc cccc cccc cccc cccc ccccc ccccc ccccc ccccc
%f  0.0000000  0.000000000  0.00000000000  0.000000000000000
%f  0.0000000  0.000000000  0.00000000000  0.000000000000000
%i    0    0    0    0      0      0      0      0         0
%i    0    0    0    0      0      0      0      0         0
/*      NGA, ST. LOUIS,MO.                                  
/*   EPHEMERIS COMPUTED FROM 1 DAYS OF DATA                 
/*   EPOCHA v6 SMOOTHER                                     
/*   G2139 IERS2010 SATIGS SATAPC                           
*  2021  7  7 16  5  0.00000000
P  1  19264.847592   9738.538693  15434.024786    635.420274                    
V  1  10277.328331  17095.069894 -22878.943133     -0.116167                    
P  2 -12883.818735 -22467.753252   6383.215082   -617.914183                    
V  2   6630.671129   3952.623781  30474.408234     -0.027183                    
P  3  15858.790016    223.141725  21193.075856   -213.596356                    
V  3 -10661.355949  24944.013889   7792.316173     -0.112710                    
P  4  26258.102140   1215.061103   4042.180663   -201.841088                    
V  4  -4935.845979   3047.482824  31151.224814     -0.008706                    
P  5 -10281.773636 -13287.538135 -20693.996828    -47.201791                    
V  5  10813.887495 -23625.896820  10050.637229     -0.011578                    
P  6  -3582.276722 -21882.999258  14634.891227     36.787976                    
V  6  11960.050938  14153.393150  24235.041403      0.053107                    
P  7  14753.246924  -5226.729531 -21147.684962    196.803587                    
V  7  15634.241539  22845.424223   4683.806159      0.090961                    
P  8  21835.728192   7004.432762 -13671.306822    -27.914993                    
V  8 -16890.527150   3775.720543 -24765.370972     -0.014705                    
P  9  24498.320783  -7700.392962  -6891.719443   -354.522444                    
V  9   8944.461268   1880.506402  29930.031651     -0.015837                    
P 10 -11540.726485  23728.149293  -1028.773421   -157.335693                    
V 10  -1911.840522  -2466.183953 -32105.707775     -0.076217                    
P 11 -10705.402400 -23774.556192   5048.466229      9.520921                    
V 11   5769.441959   3977.835732  30863.277427      0.106641                    
P 12 -15369.297335  -2073.718750  21292.540717    -65.362714                    
V 12  12705.185191 -24523.962015   6833.399793     -0.052724                    
P 13 -14605.392865 -13037.895693 -18147.448663    154.622765                    
V 13  22736.095814   -516.214468 -17922.102441      0.049983                    
P 14  12578.045255 -23354.179772   -826.323801     52.926332                    
V 14   2177.700721   2283.197623 -31672.600274     -0.089539                    
P 15 -22664.194991  -5379.198490 -13442.857849   -137.178712                    
V 15  15491.613982  -6040.612049 -24025.905288      0.026468                    
P 16   4212.382897  18372.105885 -18768.202789   -353.312786                    
V 16 -12885.291506  19651.529019  17006.212205     -0.061359                    
P 17  14238.894383 -12997.957292  18697.811639    470.140251                    
V 17  22834.772088    263.158832 -17607.831786      0.058946                    
P 18 -12486.837839   8409.362449 -21894.652475    342.530291                    
V 18 -15621.117678 -22929.239107     28.036299     -0.024470                    
P 19   4822.438840 -14370.195147  21510.262156     23.225347                    
V 19  27947.013365    772.225718  -5807.626942      0.049809                    
P 20  -5516.101917 -21147.805588 -15276.059980    520.422187                    
V 20   7566.519525 -17940.163533  21841.608202     -0.003776                    
P 21  20751.853965  14530.824362   9491.847371    129.807066                    
V 21   5366.162628   9735.867047 -28289.679215      0.023495                    
P 22  13320.723408   9340.041154  21202.654259   -569.521643                    
V 22  -9028.785604  24991.856866  -5181.536847      0.095552                    
P 23 -16271.662117  17315.423950 -11831.759305     87.745723                    
V 23   3764.660281 -14702.862189 -26799.552455     -0.049672                    
P 24 -20797.364593 -12698.530179  10780.505476    164.949711                    
V 24  -6647.472435 -12631.705486 -26676.947400      0.151831                    
P 25 -17494.933347  10580.636900  16542.753611    169.330061                    
V 25   7058.821331 -20532.011656  20536.978110      0.067261                    
P 26  -2153.026643  24461.883417  -9821.214944    107.710780                    
V 26  -7686.184963  10393.293514  28003.893357      0.046336                    
P 27  12373.343297  12534.374941 -20171.606477   -159.192714                    
V 27 -24879.423929   3140.778590 -13073.132581     -0.059907                    
P 28   9242.306894 -24384.440937   6089.973615    541.910212                    
V 28   5313.694025  -4992.872982 -30658.164353     -0.065279                    
P 29 -25532.144696   4523.239095  -5940.496489   -376.393431                    
V 29  -7490.876875  -1796.319538  31031.707379     -0.061271                    
P 30   5483.732943 -17245.915948 -19297.089205   -448.017081                    
V 30  15270.631630  19622.369788 -13387.825157     -0.044723                    
P 31   4420.343342  22609.790942  12706.913544   -127.316402                    
V 31 -11510.956165 -12099.457678  25818.405795     -0.021319                    
P 32 -10687.963877  14799.742887  19347.368560     15.271588                    
V 32 -24405.332681   1095.459604 -14574.997639     -0.018882                    
EOF
